[{"OBJECT_NAME":"CONTINUUM-1","OBJECT_ID":"2023-001AN","EPOCH":"2026-03-09T23:17:35.458656","MEAN_MOTION":15.27981258,"ECCENTRICITY":0.00109493,"INCLINATION":97.3456,"RA_OF_ASC_NODE":133.3964,"ARG_OF_PERICENTER":60.1976,"MEAN_ANOMALY":300.0351,"EPHEMERIS_TYPE":0,"CLASSIFICATION_TYPE":"U","NORAD_CAT_ID":55045,"ELEMENT_SET_NO":999,"REV_AT_EPOCH":17709,"BSTAR":0.00052859897,"MEAN_MOTION_DOT":0.00014395,"MEAN_MOTION_DDOT":0},{"OBJECT_NAME":"STARLINK-32002","OBJECT_ID":"2024-124T","EPOCH":"2026-03-09T22:36:50.126976","MEAN_MOTION":15.30174031,"ECCENTRICITY":0.00011246,"INCLINATION":53.1601,"RA_OF_ASC_NODE":321.3745,"ARG_OF_PERICENTER":95.4482,"MEAN_ANOMALY":264.6647,"EPHEMERIS_TYPE":0,"CLASSIFICATION_TYPE":"U","NORAD_CAT_ID":60200,"ELEMENT_SET_NO":999,"REV_AT_EPOCH":9433,"BSTAR":1.625554e-6,"MEAN_MOTION_DOT":-3.11e-6,"MEAN_MOTION_DDOT":0}]
